NORAD_CAT_ID,OBJECT_NAME,OBJECT_TYPE,EPOCH,MEAN_MOTION,ECCENTRICITY,INCLINATION,RA_OF_ASC_NODE,ARG_OF_PERICENTER,MEAN_ANOMALY,BSTAR,MEAN_MOTION_DOT,MEAN_MOTION_DDOT,TLE_LINE0,TLE_LINE1,TLE_LINE2,SEMIMAJOR_AXIS,PERIOD,APOGEE,PERIGEE,DECAYED
54094.0,STARLINK-5219,PAYLOAD,2024-03-03 08:18:43,15.08829961,0.0001718,53.2186,39.5211,99.0847,261.0339,0.0002958,4.421e-05,0.0,0 STARLINK-5219,1 54094U 22136AV  24063.34633135  .00004421  00000-0  29580-3 0  9997,2 54094  53.2186  39.5211 0001718  99.0847 261.0339 15.08829961 76291,6917.911,95.438,540.965,538.588,0.0
54094.0,STARLINK-5219,PAYLOAD,2024-03-04 03:23:20,15.08842702,0.0001684,53.2177,35.9525,102.5747,257.5433,8.5441e-05,1.072e-05,0.0,0 STARLINK-5219,1 54094U 22136AV  24064.14120775  .00001072  00000-0  85441-4 0  9995,2 54094  53.2177  35.9525 0001684 102.5747 257.5433 15.08842702 75944,6917.872,95.437,540.902,538.572,0.0
54094.0,STARLINK-5219,PAYLOAD,2024-03-04 14:31:02,15.08839333,0.0001642,53.2177,33.8743,93.4327,266.6853,7.3339e-05,8.79e-06,0.0,0 STARLINK-5219,1 54094U 22136AV  24064.60489016  .00000879  00000-0  73339-4 0  9999,2 54094  53.2177  33.8743 0001642  93.4327 266.6853 15.08839333 76482,6917.882,95.438,540.883,538.612,0.0
54094.0,STARLINK-5219,PAYLOAD,2024-03-05 03:14:09,15.08822918,0.0001338,53.2183,31.4924,88.8452,271.2693,-6.4417e-05,-1.312e-05,0.0,0 STARLINK-5219,1 54094U 22136AV  24065.13482685 -.00001312  00000-0 -64417-4 0  9995,2 54094  53.2183  31.4924 0001338  88.8452 271.2693 15.08822918 76567,6917.933,95.439,540.723,538.872,0.0
54094.0,STARLINK-5219,PAYLOAD,2024-03-05 06:24:54,15.08829846,0.0001465,53.2199,30.9035,101.8683,258.2473,-1.7305e-05,-5.63e-06,0.0,0 STARLINK-5219,1 54094U 22136AV  24065.26730296 -.00000563  00000-0 -17305-4 0  9994,2 54094  53.2199  30.9035 0001465 101.8683 258.2473 15.08829846 76113,6917.911,95.438,540.79,538.763,0.0
54094.0,STARLINK-5219,PAYLOAD,2024-03-05 20:43:22,15.08835131,0.0001259,53.2192,28.2252,99.7034,260.41,0.00010042,1.31e-05,0.0,0 STARLINK-5219,1 54094U 22136AV  24065.86345814  .00001310  00000-0  10042-3 0  9997,2 54094  53.2192  28.2252 0001259  99.7034 260.4100 15.08835131 76670,6917.895,95.438,540.631,538.889,0.0
54094.0,STARLINK-5219,PAYLOAD,2024-03-06 03:04:54,15.08847906,0.0001382,53.2184,27.0368,101.7001,258.4147,0.00014732,2.058e-05,0.0,0 STARLINK-5219,1 54094U 22136AV  24066.12841340  .00002058  00000-0  14732-3 0  9992,2 54094  53.2184  27.0368 0001382 101.7001 258.4147 15.08847906 76717,6917.856,95.437,540.677,538.765,0.0
54094.0,STARLINK-5219,PAYLOAD,2024-03-06 06:15:41,15.08850798,0.0001477,53.2187,26.4427,108.1362,251.9791,0.0005808,8.97e-05,0.0,0 STARLINK-5219,1 54094U 22136AV  24066.26089545  .00008970  00000-0  58080-3 0  9991,2 54094  53.2187  26.4427 0001477 108.1362 251.9791 15.08850798 76261,6917.847,95.437,540.734,538.691,0.0
54094.0,STARLINK-5219,PAYLOAD,2024-03-07 02:55:41,15.08850194,0.0001667,53.2178,22.5761,132.4868,227.6265,0.00025185,3.724e-05,0.0,0 STARLINK-5219,1 54094U 22136AV  24067.12201289  .00003724  00000-0  25185-3 0  9990,2 54094  53.2178  22.5761 0001667 132.4868 227.6265 15.08850194 76863,6917.849,95.437,540.867,538.561,0.0
54094.0,STARLINK-5219,PAYLOAD,2024-03-07 14:03:24,15.08841867,0.000124,53.2173,20.4926,89.9848,270.1286,0.00032024,4.813e-05,0.0,0 STARLINK-5219,1 54094U 22136AV  24067.58569687  .00004813  00000-0  32024-3 0  9999,2 54094  53.2173  20.4926 0001240  89.9848 270.1286 15.08841867 76468,6917.875,95.437,540.597,538.882,0.0
54094.0,STARLINK-5219,PAYLOAD,2024-03-08 02:46:29,15.08838991,0.0001485,53.2177,18.1135,93.2882,266.828,0.00071565,0.0001112,0.0,0 STARLINK-5219,1 54094U 22136AV  24068.11561933  .00011120  00000-0  71565-3 0  9997,2 54094  53.2177  18.1135 0001485  93.2882 266.8280 15.08838991 77017,6917.883,95.438,540.776,538.721,0.0
54094.0,STARLINK-5219,PAYLOAD,2024-03-08 05:57:15,15.08848241,0.0001472,53.2178,17.518,94.663,265.453,0.00060996,9.435e-05,0.0,0 STARLINK-5219,1 54094U 22136AV  24068.24809637  .00009435  00000-0  60996-3 0  9999,2 54094  53.2178  17.5180 0001472  94.6630 265.4530 15.08848241 76564,6917.855,95.437,540.739,538.702,0.0
54094.0,STARLINK-5219,PAYLOAD,2024-03-09 02:37:16,15.08846386,0.0001641,53.2194,13.6493,84.2341,275.8839,0.00024078,3.547e-05,0.0,0 STARLINK-5219,1 54094U 22136AV  24069.10921716  .00003547  00000-0  24078-3 0  9997,2 54094  53.2194  13.6493 0001641  84.2341 275.8839 15.08846386 77160,6917.861,95.437,540.861,538.591,0.0
54094.0,STARLINK-5219,PAYLOAD,2024-03-09 13:44:58,15.08845786,0.0001501,53.2195,11.567,111.3203,248.795,0.00021319,3.107e-05,0.0,0 STARLINK-5219,1 54094U 22136AV  24069.57289582  .00003107  00000-0  21319-3 0  9993,2 54094  53.2195  11.5670 0001501 111.3203 248.7950 15.08845786 76760,6917.863,95.437,540.766,538.689,0.0
54094.0,STARLINK-5219,PAYLOAD,2024-03-10 05:38:49,15.08854364,0.0001655,53.2191,8.5967,95.549,264.5691,0.00031942,4.801e-05,0.0,0 STARLINK-5219,1 54094U 22136AV  24070.23529080  .00004801  00000-0  31942-3 0  9993,2 54094  53.2191   8.5967 0001655  95.5490 264.5691 15.08854364 77336,6917.836,95.437,540.846,538.557,0.0
54094.0,STARLINK-5219,PAYLOAD,2024-03-10 19:57:17,15.08837861,0.0001714,53.2192,5.9194,76.7877,283.3306,-9.7424e-05,-1.838e-05,0.0,0 STARLINK-5219,1 54094U 22136AV  24070.83145514 -.00001838  00000-0 -97424-4 0  9992,2 54094  53.2192   5.9194 0001714  76.7877 283.3306 15.08837861 77421,6917.887,95.438,540.938,538.566,0.0
54094.0,STARLINK-5219,PAYLOAD,2024-03-11 05:29:36,15.08841073,0.0001373,53.2187,4.1367,70.304,289.8101,0.00011497,1.542e-05,0.0,0 STARLINK-5219,1 54094U 22136AV  24071.22889533  .00001542  00000-0  11497-3 0  9997,2 54094  53.2187   4.1367 0001373  70.3040 289.8101 15.08841073 77010,6917.877,95.437,540.692,538.792,0.0
54094.0,STARLINK-5219,PAYLOAD,2024-03-12 02:09:37,15.08840768,0.0001297,53.2184,0.2723,87.073,273.0411,0.00033525,5.052e-05,0.0,0 STARLINK-5219,1 54094U 22136AV  24072.09002058  .00005052  00000-0  33525-3 0  9998,2 54094  53.2184   0.2723 0001297  87.0730 273.0411 15.08840768 77611,6917.878,95.438,540.64,538.846,0.0
54094.0,STARLINK-5219,PAYLOAD,2024-03-12 05:20:23,15.0884534,0.0001276,53.2183,359.6763,83.3471,276.7666,0.00029919,4.478e-05,0.0,0 STARLINK-5219,1 54094U 22136AV  24072.22249852  .00004478  00000-0  29919-3 0  9991,2 54094  53.2183 359.6763 0001276  83.3471 276.7666 15.08845340 77166,6917.864,95.437,540.612,538.846,0.0
54094.0,STARLINK-5219,PAYLOAD,2024-03-13 11:32:43,15.08840523,0.0001366,53.2184,354.0259,80.0102,280.1044,9.9146e-05,1.29e-05,0.0,0 STARLINK-5219,1 54094U 22136AV  24073.48106113  .00001290  00000-0  99146-4 0  9991,2 54094  53.2184 354.0259 0001366  80.0102 280.1044 15.08840523 77821,6917.879,95.438,540.689,538.799,0.0
54094.0,STARLINK-5219,PAYLOAD,2024-03-13 22:40:26,15.08833227,0.000166,53.2198,351.9501,96.7961,263.322,-5.0739e-05,-1.095e-05,0.0,0 STARLINK-5219,1 54094U 22136AV  24073.94474807 -.00001095  00000-0 -50739-4 0  9990,2 54094  53.2198 351.9501 0001660  96.7961 263.3220 15.08833227 77424,6917.901,95.438,540.914,538.618,0.0
54094.0,STARLINK-5219,PAYLOAD,2024-03-14 03:26:35,15.08839984,0.0001562,53.2187,351.056,94.5277,265.5894,2.2864e-05,7.6e-07,0.0,0 STARLINK-5219,1 54094U 22136AV  24074.14346399  .00000076  00000-0  22864-4 0  9991,2 54094  53.2187 351.0560 0001562  94.5277 265.5894 15.08839984 77455,6917.88,95.438,540.826,538.665,0.0
54094.0,STARLINK-5219,PAYLOAD,2024-03-14 22:31:13,15.08843026,0.0001687,53.2188,347.4886,94.2087,265.9098,0.00022691,3.325e-05,0.0,0 STARLINK-5219,1 54094U 22136AV  24074.93834614  .00003325  00000-0  22691-3 0  9997,2 54094  53.2188 347.4886 0001687  94.2087 265.9098 15.08843026 77575,6917.871,95.437,540.903,538.569,0.0
54094.0,STARLINK-5219,PAYLOAD,2024-03-15 03:17:22,15.08851352,0.0001451,53.2175,346.5932,94.0278,266.088,0.00037657,5.712e-05,0.0,0 STARLINK-5219,1 54094U 22136AV  24075.13706243  .00005712  00000-0  37657-3 0  9996,2 54094  53.2175 346.5932 0001451  94.0278 266.0880 15.08851352 78070,6917.846,95.437,540.714,538.707,0.0
54094.0,STARLINK-5219,PAYLOAD,2024-03-15 22:22:00,15.08843834,0.0001851,53.2179,343.0278,102.4527,257.6673,0.00017485,2.496e-05,0.0,0 STARLINK-5219,1 54094U 22136AV  24075.93194624  .00002496  00000-0  17485-3 0  9991,2 54094  53.2179 343.0278 0001851 102.4527 257.6673 15.08843834 77727,6917.869,95.437,541.014,538.453,0.0
54094.0,STARLINK-5219,PAYLOAD,2024-03-16 01:32:46,15.08846973,0.0001448,53.2173,342.4301,96.7748,263.3409,0.00022066,3.226e-05,0.0,0 STARLINK-5219,1 54094U 22136AV  24076.06442489  .00003226  00000-0  22066-3 0  9994,2 54094  53.2173 342.4301 0001448  96.7748 263.3409 15.08846973 78216,6917.859,95.437,540.726,538.722,0.0
54094.0,STARLINK-5219,PAYLOAD,2024-03-16 17:26:37,15.08845422,0.0001695,53.217,339.4626,71.7099,288.4077,0.00018732,2.695e-05,0.0,0 STARLINK-5219,1 54094U 22136AV  24076.72682724  .00002695  00000-0  18732-3 0  9999,2 54094  53.2170 339.4626 0001695  71.7099 288.4077 15.08845422 78313,6917.864,95.437,540.901,538.556,0.0
54094.0,STARLINK-5219,PAYLOAD,2024-03-16 22:12:47,15.08845224,0.0001569,53.2172,338.5677,78.1577,281.9591,0.00013095,1.797e-05,0.0,0 STARLINK-5219,1 54094U 22136AV  24076.92554678  .00001797  00000-0  13095-3 0  9996,2 54094  53.2172 338.5677 0001569  78.1577 281.9591 15.08845224 77872,6917.864,95.437,540.815,538.644,0.0
54094.0,STARLINK-5219,PAYLOAD,2024-03-17 02:58:56,15.08849649,0.0001523,53.2173,337.6731,83.6636,276.453,0.00021437,3.126e-05,0.0,0 STARLINK-5219,1 54094U 22136AV  24077.12426387  .00003126  00000-0  21437-3 0  9991,2 54094  53.2173 337.6731 0001523  83.6636 276.4530 15.08849649 77902,6917.851,95.437,540.769,538.662,0.0
54094.0,STARLINK-5219,PAYLOAD,2024-03-17 20:28:10,15.08843273,0.000169,53.2181,334.4005,114.09,246.0269,6.5365e-05,7.52e-06,0.0,0 STARLINK-5219,1 54094U 22136AV  24077.85290446  .00000752  00000-0  65365-4 0  9997,2 54094  53.2181 334.4005 0001690 114.0900 246.0269 15.08843273 78481,6917.87,95.437,540.905,538.566,0.0
